[{"OBJECT_NAME":"YAOGAN-30 11C","OBJECT_ID":"2021-065D","EPOCH":"2026-03-09T22:23:40.743744","MEAN_MOTION":15.02147773,"ECCENTRICITY":0.00031824,"INCLINATION":34.9942,"RA_OF_ASC_NODE":157.3601,"ARG_OF_PERICENTER":128.8602,"MEAN_ANOMALY":231.239,"EPHEMERIS_TYPE":0,"CLASSIFICATION_TYPE":"U","NORAD_CAT_ID":49029,"ELEMENT_SET_NO":999,"REV_AT_EPOCH":25372,"BSTAR":0.00028936186,"MEAN_MOTION_DOT":3.857e-5,"MEAN_MOTION_DDOT":0},{"OBJECT_NAME":"STARLINK-30371","OBJECT_ID":"2023-131D","EPOCH":"2026-03-09T06:28:41.706624","MEAN_MOTION":15.02535192,"ECCENTRICITY":0.00015763,"INCLINATION":43.0017,"RA_OF_ASC_NODE":173.8442,"ARG_OF_PERICENTER":268.2057,"MEAN_ANOMALY":91.8605,"EPHEMERIS_TYPE":0,"CLASSIFICATION_TYPE":"U","NORAD_CAT_ID":57735,"ELEMENT_SET_NO":999,"REV_AT_EPOCH":13986,"BSTAR":-3.612813e-6,"MEAN_MOTION_DOT":-2.52e-6,"MEAN_MOTION_DDOT":0}]
